{
"type": "FeatureCollection",
"name": "labels",
"crs": { "type": "name", "properties": { "name": "urn:ogc:def:crs:OGC:1.3:CRS84" } },
"features": [
{ "type": "Feature", "properties": { "fid": 1, "name": "Alps", "category": "mountains", "period_txt": "atlantic", "rotation": null }, "geometry": { "type": "Point", "coordinates": [ 9.00951516175315, 46.807478700133089 ] } },
{ "type": "Feature", "properties": { "fid": 2, "name": "coming soon", "category": "coming soon", "period_txt": "lgm", "rotation": null }, "geometry": { "type": "Point", "coordinates": [ -4.028327724829618, 41.2772099456147 ] } },
{ "type": "Feature", "properties": { "fid": 3, "name": "Fennoscandinavian Icesheet", "category": "icesheet", "period_txt": "lgm", "rotation": null }, "geometry": { "type": "Point", "coordinates": [ 8.826703174831835, 61.319438984295893 ] } },
{ "type": "Feature", "properties": { "fid": 4, "name": "British-Irish Icesheet", "category": "icesheet", "period_txt": "lgm", "rotation": null }, "geometry": { "type": "Point", "coordinates": [ -7.973288315256829, 53.94601460981994 ] } },
{ "type": "Feature", "properties": { "fid": 5, "name": "Late Weichselian North Sea Lake", "category": "icelake", "period_txt": "lgm", "rotation": null }, "geometry": { "type": "Point", "coordinates": [ 4.308089331491617, 54.013928608122207 ] } },
{ "type": "Feature", "properties": { "fid": 6, "name": "Doggerland", "category": "land", "period_txt": "late-preboreal", "rotation": null }, "geometry": { "type": "Point", "coordinates": [ 3.745377742385147, 54.789310362946424 ] } },
{ "type": "Feature", "properties": { "fid": 7, "name": "Doggerbank", "category": "land", "period_txt": "atlantic", "rotation": null }, "geometry": { "type": "Point", "coordinates": [ 2.083435122713793, 54.723087007078384 ] } },
{ "type": "Feature", "properties": { "fid": 8, "name": "Baltic Ice Lake", "category": "icelake", "period_txt": "allerod", "rotation": null }, "geometry": { "type": "Point", "coordinates": [ 17.853884043056631, 57.432864508973879 ] } },
{ "type": "Feature", "properties": { "fid": 9, "name": "Fennoscandian Icesheet", "category": "icesheet", "period_txt": "allerod", "rotation": null }, "geometry": { "type": "Point", "coordinates": [ 19.568610951597169, 63.874221092445538 ] } },
{ "type": "Feature", "properties": { "fid": 10, "name": "Yoldia Sea", "category": "sea", "period_txt": "early-preboreal", "rotation": null }, "geometry": { "type": "Point", "coordinates": [ 20.239766665382188, 58.212671773613025 ] } },
{ "type": "Feature", "properties": { "fid": 11, "name": "Yoldia Sea", "category": "sea", "period_txt": "late-preboreal", "rotation": null }, "geometry": { "type": "Point", "coordinates": [ 18.096607272749065, 56.363743930288834 ] } },
{ "type": "Feature", "properties": { "fid": 12, "name": "Ancyclus Lake", "category": "lake", "period_txt": "early-boreal", "rotation": null }, "geometry": { "type": "Point", "coordinates": [ 19.410781952360427, 59.788410847227624 ] } },
{ "type": "Feature", "properties": { "fid": 13, "name": "Littorina Sea", "category": "sea", "period_txt": "atlantic", "rotation": null }, "geometry": { "type": "Point", "coordinates": [ 18.663435990218264, 61.494286409970591 ] } },
{ "type": "Feature", "properties": { "fid": 14, "name": "Scottisch Icesheet", "category": "icesheet", "period_txt": "meiendorf-bolling", "rotation": null }, "geometry": { "type": "Point", "coordinates": [ -5.431137156164007, 56.696822206399318 ] } },
{ "type": "Feature", "properties": { "fid": 15, "name": "North Sea basin", "category": "sea", "period_txt": "meiendorf-bolling", "rotation": null }, "geometry": { "type": "Point", "coordinates": [ -0.115050989179575, 58.823014968043545 ] } },
{ "type": "Feature", "properties": { "fid": 16, "name": "North Atlantic Ocean", "category": "sea", "period_txt": "meiendorf-bolling", "rotation": null }, "geometry": { "type": "Point", "coordinates": [ -2.441005931664745, 67.229234468310068 ] } },
{ "type": "Feature", "properties": { "fid": 19, "name": "Ancyclus Lake", "category": "lake", "period_txt": "late-boreal", "rotation": null }, "geometry": { "type": "Point", "coordinates": [ 19.410781952360427, 59.788410847227624 ] } },
{ "type": "Feature", "properties": { "fid": 20, "name": "Alps", "category": "mountains", "period_txt": "lgm", "rotation": null }, "geometry": { "type": "Point", "coordinates": [ 9.380494112681122, 46.838627861565698 ] } },
{ "type": "Feature", "properties": { "fid": 21, "name": "Neoeixinian Lake", "category": "lake", "period_txt": "lgm", "rotation": null }, "geometry": { "type": "Point", "coordinates": [ 32.629989430199089, 43.816108536639639 ] } },
{ "type": "Feature", "properties": { "fid": 22, "name": "Fennoscandinian Icesheet", "category": "icesheet", "period_txt": "meiendorf-bolling", "rotation": null }, "geometry": { "type": "Point", "coordinates": [ 17.933834109358386, 63.665245715947485 ] } },
{ "type": "Feature", "properties": { "fid": 23, "name": "Baltic Ice Lake", "category": "lake", "period_txt": "meiendorf-bolling", "rotation": null }, "geometry": { "type": "Point", "coordinates": [ 17.646602216910992, 56.035331962557841 ] } },
{ "type": "Feature", "properties": { "fid": 24, "name": "Neoeuxinian Lake", "category": "lake", "period_txt": "meiendorf-bolling", "rotation": null }, "geometry": { "type": "Point", "coordinates": [ 32.111526611393344, 43.75501877281301 ] } },
{ "type": "Feature", "properties": { "fid": 25, "name": "Alps", "category": "mountains", "period_txt": "meiendorf-bolling", "rotation": null }, "geometry": { "type": "Point", "coordinates": [ 10.040719921902648, 46.457224929882777 ] } },
{ "type": "Feature", "properties": { "fid": 26, "name": "Coming Soon", "category": "coming soon", "period_txt": "meiendorf-bolling", "rotation": null }, "geometry": { "type": "Point", "coordinates": [ 2.098141745905506, 41.71041188867202 ] } },
{ "type": "Feature", "properties": { "fid": 27, "name": "Bay of Biscay", "category": "sea", "period_txt": "meiendorf-bolling", "rotation": null }, "geometry": { "type": "Point", "coordinates": [ -5.746195345663353, 45.457044413078279 ] } },
{ "type": "Feature", "properties": { "fid": 28, "name": "Doggerland", "category": "land", "period_txt": "allerod", "rotation": null }, "geometry": { "type": "Point", "coordinates": [ 4.342324603908682, 54.917247242971058 ] } },
{ "type": "Feature", "properties": { "fid": 29, "name": "Alps", "category": "mountains", "period_txt": "allerod", "rotation": null }, "geometry": { "type": "Point", "coordinates": [ 9.055074712044165, 46.566620278644073 ] } },
{ "type": "Feature", "properties": { "fid": 30, "name": "North Atlantic Ocean", "category": "sea", "period_txt": "allerod", "rotation": null }, "geometry": { "type": "Point", "coordinates": [ -5.412499528704735, 66.30203231034713 ] } },
{ "type": "Feature", "properties": { "fid": 31, "name": "Bay of Biscay", "category": "sea", "period_txt": "allerod", "rotation": null }, "geometry": { "type": "Point", "coordinates": [ -4.901480465043853, 45.234777321060506 ] } },
{ "type": "Feature", "properties": { "fid": 32, "name": "Neoeuxinian Lake", "category": "lake", "period_txt": "allerod", "rotation": null }, "geometry": { "type": "Point", "coordinates": [ 31.451209212892941, 43.956605956717873 ] } },
{ "type": "Feature", "properties": { "fid": 33, "name": "Fennoscandian Icesheet", "category": "icesheet", "period_txt": "younger-dryas", "rotation": null }, "geometry": { "type": "Point", "coordinates": [ 16.360957528085951, 62.881366786495832 ] } },
{ "type": "Feature", "properties": { "fid": 34, "name": "North Atlantic Ocean", "category": "sea", "period_txt": "younger-dryas", "rotation": null }, "geometry": { "type": "Point", "coordinates": [ -4.880490782241865, 65.883698419974408 ] } },
{ "type": "Feature", "properties": { "fid": 35, "name": "Neoeuxinian Lake", "category": "lake", "period_txt": "younger-dryas", "rotation": null }, "geometry": { "type": "Point", "coordinates": [ 31.63652223441451, 43.799586464034427 ] } },
{ "type": "Feature", "properties": { "fid": 36, "name": "Alps", "category": "mountains", "period_txt": "younger-dryas", "rotation": null }, "geometry": { "type": "Point", "coordinates": [ 8.2394615796574, 46.385999230176012 ] } },
{ "type": "Feature", "properties": { "fid": 37, "name": "Doggerland", "category": "land", "period_txt": "younger-dryas", "rotation": null }, "geometry": { "type": "Point", "coordinates": [ 2.651280438095882, 53.890137228082715 ] } },
{ "type": "Feature", "properties": { "fid": 38, "name": "Baltic Ice Lake", "category": "lake", "period_txt": "younger-dryas", "rotation": null }, "geometry": { "type": "Point", "coordinates": [ 19.301711814188479, 57.409877496480554 ] } },
{ "type": "Feature", "properties": { "fid": 39, "name": "Scotish Icesheet", "category": "icesheet", "period_txt": "younger-dryas", "rotation": null }, "geometry": { "type": "Point", "coordinates": [ -4.719410591879632, 56.563786166707693 ] } },
{ "type": "Feature", "properties": { "fid": 40, "name": "North Sea basin", "category": "sea", "period_txt": "younger-dryas", "rotation": null }, "geometry": { "type": "Point", "coordinates": [ -0.121805788821205, 59.037157300898741 ] } },
{ "type": "Feature", "properties": { "fid": 41, "name": "Fennoscandian Icesheet", "category": "icesheet", "period_txt": "early-preboreal", "rotation": null }, "geometry": { "type": "Point", "coordinates": [ 16.749306914736781, 63.778255136616551 ] } },
{ "type": "Feature", "properties": { "fid": 42, "name": "North Atlantic Ocean", "category": "sea", "period_txt": "early-preboreal", "rotation": null }, "geometry": { "type": "Point", "coordinates": [ -5.049220549396678, 65.810043530675486 ] } },
{ "type": "Feature", "properties": { "fid": 43, "name": "North Sea basin", "category": "sea", "period_txt": "early-preboreal", "rotation": null }, "geometry": { "type": "Point", "coordinates": [ -0.124553208819875, 58.664916429080989 ] } },
{ "type": "Feature", "properties": { "fid": 44, "name": "Bay of Biscay", "category": "sea", "period_txt": "early-preboreal", "rotation": null }, "geometry": { "type": "Point", "coordinates": [ -6.518648759188619, 45.279457848273353 ] } },
{ "type": "Feature", "properties": { "fid": 45, "name": "Doggerland", "category": "land", "period_txt": "early-preboreal", "rotation": null }, "geometry": { "type": "Point", "coordinates": [ 2.689192348803561, 53.949312945787959 ] } },
{ "type": "Feature", "properties": { "fid": 46, "name": "Neoeuxinian Lake", "category": "lake", "period_txt": "early-preboreal", "rotation": null }, "geometry": { "type": "Point", "coordinates": [ 31.82564351910905, 43.758730059869038 ] } },
{ "type": "Feature", "properties": { "fid": 47, "name": "Alps", "category": "mountains", "period_txt": "early-preboreal", "rotation": null }, "geometry": { "type": "Point", "coordinates": [ 8.852184973277353, 46.451092466726756 ] } },
{ "type": "Feature", "properties": { "fid": 48, "name": "Fennoscandian Icesheet", "category": "icesheet", "period_txt": "late-preboreal", "rotation": null }, "geometry": { "type": "Point", "coordinates": [ 17.484018162149955, 64.145076304689979 ] } },
{ "type": "Feature", "properties": { "fid": 49, "name": "Alps", "category": "mountains", "period_txt": "late-preboreal", "rotation": null }, "geometry": { "type": "Point", "coordinates": [ 9.097105017263642, 46.510208422988647 ] } },
{ "type": "Feature", "properties": { "fid": 50, "name": "North Sea basin", "category": "sea", "period_txt": "late-preboreal", "rotation": null }, "geometry": { "type": "Point", "coordinates": [ 0.503639795241533, 58.367420399138148 ] } },
{ "type": "Feature", "properties": { "fid": 51, "name": "Bay of Biscay", "category": "sea", "period_txt": "late-preboreal", "rotation": null }, "geometry": { "type": "Point", "coordinates": [ -5.665872615473579, 45.180165049670229 ] } },
{ "type": "Feature", "properties": { "fid": 52, "name": "Neoeuxinian Lake", "category": "lake", "period_txt": "early-boreal", "rotation": null }, "geometry": { "type": "Point", "coordinates": [ 31.565069502654175, 43.932329409624799 ] } },
{ "type": "Feature", "properties": { "fid": 53, "name": "North Atlantic Ocean", "category": "sea", "period_txt": "late-preboreal", "rotation": null }, "geometry": { "type": "Point", "coordinates": [ -5.690028873924661, 67.095407836824094 ] } },
{ "type": "Feature", "properties": { "fid": 54, "name": "Neoeuxinian Lake", "category": "lake", "period_txt": "late-preboreal", "rotation": null }, "geometry": { "type": "Point", "coordinates": [ 32.160211135591695, 43.979537405021098 ] } },
{ "type": "Feature", "properties": { "fid": 55, "name": "Fennoscandian Icesheet", "category": "icesheet", "period_txt": "early-boreal", "rotation": null }, "geometry": { "type": "Point", "coordinates": [ 17.040271115175031, 64.966120248144364 ] } },
{ "type": "Feature", "properties": { "fid": 56, "name": "North Atlantic Ocean", "category": "sea", "period_txt": "early-boreal", "rotation": null }, "geometry": { "type": "Point", "coordinates": [ -6.997891965004045, 67.264410328527916 ] } },
{ "type": "Feature", "properties": { "fid": 57, "name": "Bay of Biscay", "category": "sea", "period_txt": "early-boreal", "rotation": null }, "geometry": { "type": "Point", "coordinates": [ -6.541497102251842, 45.623273607107031 ] } },
{ "type": "Feature", "properties": { "fid": 58, "name": "Coming Soon", "category": "coming soon", "period_txt": "early-boreal", "rotation": null }, "geometry": { "type": "Point", "coordinates": [ -3.56840229142956, 41.269464462357256 ] } },
{ "type": "Feature", "properties": { "fid": 59, "name": "Alps", "category": "mountains", "period_txt": "early-boreal", "rotation": null }, "geometry": { "type": "Point", "coordinates": [ 9.097105017263642, 46.510208422988661 ] } },
{ "type": "Feature", "properties": { "fid": 60, "name": "Dogger Island", "category": "land", "period_txt": "early-boreal", "rotation": null }, "geometry": { "type": "Point", "coordinates": [ 2.517421204731255, 54.906504711755304 ] } },
{ "type": "Feature", "properties": { "fid": 61, "name": "Black Sea", "category": "sea", "period_txt": "late-boreal", "rotation": null }, "geometry": { "type": "Point", "coordinates": [ 31.692740904269471, 44.257302544358005 ] } },
{ "type": "Feature", "properties": { "fid": 62, "name": "Alps", "category": "mountains", "period_txt": "late-boreal", "rotation": null }, "geometry": { "type": "Point", "coordinates": [ 8.92958984532126, 46.678987340407346 ] } },
{ "type": "Feature", "properties": { "fid": 63, "name": "Bay of Biscay", "category": "sea", "period_txt": "late-boreal", "rotation": null }, "geometry": { "type": "Point", "coordinates": [ -5.996777598831697, 45.187537025627734 ] } },
{ "type": "Feature", "properties": { "fid": 64, "name": "North Sea basin", "category": "sea", "period_txt": "late-boreal", "rotation": null }, "geometry": { "type": "Point", "coordinates": [ 0.82573919130226, 57.533031707593643 ] } },
{ "type": "Feature", "properties": { "fid": 65, "name": "North Atlantic Ocean", "category": "sea", "period_txt": "late-boreal", "rotation": null }, "geometry": { "type": "Point", "coordinates": [ -5.134985532403135, 66.677778085203784 ] } },
{ "type": "Feature", "properties": { "fid": 66, "name": "Dogger Island", "category": "land", "period_txt": "late-boreal", "rotation": null }, "geometry": { "type": "Point", "coordinates": [ 2.604941267093705, 54.968637828676151 ] } },
{ "type": "Feature", "properties": { "fid": 67, "name": "North Atlantic Ocean", "category": "sea", "period_txt": "atlantic", "rotation": null }, "geometry": { "type": "Point", "coordinates": [ -6.364575847550273, 66.328406733422426 ] } },
{ "type": "Feature", "properties": { "fid": 68, "name": "Bay of Biscay", "category": "sea", "period_txt": "atlantic", "rotation": null }, "geometry": { "type": "Point", "coordinates": [ -6.603546924875524, 45.555507663909495 ] } },
{ "type": "Feature", "properties": { "fid": 69, "name": "Black Sea", "category": "sea", "period_txt": "atlantic", "rotation": null }, "geometry": { "type": "Point", "coordinates": [ 31.522936557256671, 43.823934371432941 ] } },
{ "type": "Feature", "properties": { "fid": 70, "name": "Coming Soon", "category": "coming soon", "period_txt": "atlantic", "rotation": null }, "geometry": { "type": "Point", "coordinates": [ -3.382865024548372, 41.467749554632668 ] } },
{ "type": "Feature", "properties": { "fid": 71, "name": "Coming Soon", "category": "coming soon", "period_txt": "late-boreal", "rotation": null }, "geometry": { "type": "Point", "coordinates": [ -3.283070178011337, 41.711713583355326 ] } },
{ "type": "Feature", "properties": { "fid": 72, "name": "Coming Soon", "category": "coming soon", "period_txt": "late-preboreal", "rotation": null }, "geometry": { "type": "Point", "coordinates": [ -2.489626007046507, 41.584432028512055 ] } },
{ "type": "Feature", "properties": { "fid": 73, "name": "Coming Soon", "category": "coming soon", "period_txt": "early-preboreal", "rotation": null }, "geometry": { "type": "Point", "coordinates": [ -3.866499558359621, 41.574144021260643 ] } },
{ "type": "Feature", "properties": { "fid": 74, "name": "Coming Soon", "category": "coming soon", "period_txt": "younger-dryas", "rotation": null }, "geometry": { "type": "Point", "coordinates": [ -3.02302280108667, 41.573366807271533 ] } },
{ "type": "Feature", "properties": { "fid": 75, "name": "Coming Soon", "category": "coming soon", "period_txt": "allerod", "rotation": null }, "geometry": { "type": "Point", "coordinates": [ -2.650357087335352, 41.621620453026694 ] } }
]
}
